IRIDIUM 155             
1 43573U 18061E   24035.58613636  .00000157  00000+0  49170-4 0  9997
2 43573  86.3924  57.5964 0002018  86.2455 273.8971 14.34216967289574
IRIDIUM 154             
1 43574U 18061F   24035.91595429 -.00000241  00000+0 -93176-4 0  9995
2 43574  86.3927  57.5498 0002324  89.5305 270.6157 14.34216118289670
IRIDIUM 163             
1 43575U 18061G   24035.89692830 -.00000317  00000+0 -12011-3 0  9999
2 43575  86.3924  57.4997 0002170  88.4343 271.7102 14.34214393289642
IRIDIUM 156             
1 43576U 18061H   24035.52270013  .00000305  00000+0  10190-3 0  9996
2 43576  86.3927  57.6628 0002033  96.4712 263.6715 14.34222077289587
IRIDIUM 164             
1 43577U 18061J   24035.57345069  .00000232  00000+0  75679-4 0  9999
2 43577  86.3928  57.6685 0002279  96.8998 263.2457 14.34217149289633
IRIDIUM 159             
1 43578U 18061K   24035.89057677 -.00000062  00000+0 -29166-4 0  9993
2 43578  86.3923  57.4906 0002194  88.9450 271.1997 14.34215269289643
IRIDIUM 180             
1 43922U 19002A   24035.89007701  .00000404  00000+0  13707-3 0  9996
2 43922  86.4004 354.3797 0002294  88.2477 271.8981 14.34217889265258
IRIDIUM 176             
1 43923U 19002B   24035.90117068  .00001484  00000+0  23142-3 0  9990
2 43923  86.6133 354.4042 0002312  90.1963 269.9519 14.72269227272237
IRIDIUM 168             
1 43924U 19002C   24035.95350666  .00000039  00000+0  70232-5 0  9998
2 43924  86.4008 354.4060 0002240  88.7268 271.4185 14.34217715265241
IRIDIUM 173             
1 43925U 19002D   24035.94081624  .00000493  00000+0  16886-3 0  9990
2 43925  86.4003 354.3358 0002228  83.2723 276.8726 14.34216517265225
IRIDIUM 169             
1 43926U 19002E   24035.92604079  .00000393  00000+0  12205-3 0  9994
2 43926  86.4222  25.9390 0001729   5.3309 354.7907 14.38604390266116
IRIDIUM 172             
1 43927U 19002F   24035.93447490  .00000312  00000+0  10441-3 0  9999
2 43927  86.4003 354.3436 0002264  86.2022 273.9433 14.34220402265231
IRIDIUM 175             
1 43928U 19002G   24035.89524489  .00001521  00000+0  23709-3 0  9993
2 43928  86.1547 335.0960 0002333  85.6558 274.4925 14.72265511272225
IRIDIUM 171             
1 43929U 19002H   24035.91544948  .00000228  00000+0  74407-4 0  9994
2 43929  86.4014 354.5621 0002179  89.4185 270.7261 14.34217246265228
IRIDIUM 170             
1 43930U 19002J   24035.90738460  .00001497  00000+0  23343-3 0  9990
2 43930  86.6133 354.4064 0002468  87.8505 272.2995 14.72272313272242
IRIDIUM 167             
1 43931U 19002K   24035.90910348  .00000573  00000+0  19737-3 0  9994
2 43931  86.4003 354.3692 0002228  88.8562 271.2889 14.34216656265228
IRIDIUM 181             
1 56726U 23068S   24035.95004064  .00000279  00000+0  76565-4 0  9997
2 56726  86.8605  41.5966 0002130 106.7327 253.4108 14.43573300 37917
IRIDIUM 177             
1 56727U 23068T   24035.91483228  .00002042  00000+0  26524-3 0  9996
2 56727  86.1980  18.6154 0002538  91.8089 268.3423 14.80237342 38664
IRIDIUM 174             
1 56728U 23068U   24035.90942340  .00002081  00000+0  27018-3 0  9993
2 56728  86.1987  18.7108 0002540  89.9679 270.1833 14.80257497 38667
IRIDIUM 178             
1 56729U 23068V   24035.90420594  .00000844  00000+0  10764-3 0  9991
2 56729  86.5773  29.8547 0002656  93.8459 266.3066 14.80219895 38668
IRIDIUM 179             
1 56730U 23068W   24035.83122064  .00000833  00000+0  10628-3 0  9993
2 56730  86.6778  32.3392 0002365  95.6289 264.5202 14.80212769 38655
